[{"OBJECT_NAME":"TIANTONG-1 1","OBJECT_ID":"2016-048A","EPOCH":"2026-04-03T16:43:59.772576","MEAN_MOTION":1.00272557,"ECCENTRICITY":0.00064068,"INCLINATION":3.7083,"RA_OF_ASC_NODE":42.7354,"ARG_OF_PERICENTER":10.6542,"MEAN_ANOMALY":131.042,"EPHEMERIS_TYPE":0,"CLASSIFICATION_TYPE":"U","NORAD_CAT_ID":41725,"ELEMENT_SET_NO":999,"REV_AT_EPOCH":3552,"BSTAR":0,"MEAN_MOTION_DOT":-3.18e-6,"MEAN_MOTION_DDOT":0},{"OBJECT_NAME":"JCSAT-16","OBJECT_ID":"2016-050A","EPOCH":"2026-04-05T13:25:43.543200","MEAN_MOTION":1.00271195,"ECCENTRICITY":9.838e-5,"INCLINATION":0.0178,"RA_OF_ASC_NODE":201.8571,"ARG_OF_PERICENTER":206.6645,"MEAN_ANOMALY":130.7118,"EPHEMERIS_TYPE":0,"CLASSIFICATION_TYPE":"U","NORAD_CAT_ID":41729,"ELEMENT_SET_NO":999,"REV_AT_EPOCH":3534,"BSTAR":0,"MEAN_MOTION_DOT":-2.49e-6,"MEAN_MOTION_DDOT":0},{"OBJECT_NAME":"USA 270","OBJECT_ID":"2016-052A","EPOCH":"2026-04-03T08:31:32.856096","MEAN_MOTION":1.00334013,"ECCENTRICITY":0.000383,"INCLINATION":4.0059,"RA_OF_ASC_NODE":78.1231,"ARG_OF_PERICENTER":309.4269,"MEAN_ANOMALY":107.269,"EPHEMERIS_TYPE":0,"CLASSIFICATION_TYPE":"U","NORAD_CAT_ID":41744,"ELEMENT_SET_NO":999,"REV_AT_EPOCH":2738,"BSTAR":0,"MEAN_MOTION_DOT":2.9e-7,"MEAN_MOTION_DDOT":0},{"OBJECT_NAME":"USA 271","OBJECT_ID":"2016-052B","EPOCH":"2026-04-03T08:17:11.732352","MEAN_MOTION":1.00250962,"ECCENTRICITY":0.0007625,"INCLINATION":3.9783,"RA_OF_ASC_NODE":78.1909,"ARG_OF_PERICENTER":147.5825,"MEAN_ANOMALY":215.0428,"EPHEMERIS_TYPE":0,"CLASSIFICATION_TYPE":"U","NORAD_CAT_ID":41745,"ELEMENT_SET_NO":999,"REV_AT_EPOCH":2717,"BSTAR":0,"MEAN_MOTION_DOT":-3.56e-6,"MEAN_MOTION_DDOT":0},{"OBJECT_NAME":"INTELSAT 36 (IS-36)","OBJECT_ID":"2016-053A","EPOCH":"2026-04-05T13:13:57.673344","MEAN_MOTION":1.00271878,"ECCENTRICITY":9.964e-5,"INCLINATION":0.0109,"RA_OF_ASC_NODE":233.5325,"ARG_OF_PERICENTER":102.2251,"MEAN_ANOMALY":125.0803,"EPHEMERIS_TYPE":0,"CLASSIFICATION_TYPE":"U","NORAD_CAT_ID":41747,"ELEMENT_SET_NO":999,"REV_AT_EPOCH":3523,"BSTAR":0,"MEAN_MOTION_DOT":-2.3e-7,"MEAN_MOTION_DDOT":0},{"OBJECT_NAME":"INTELSAT 33E (IS-33E)","OBJECT_ID":"2016-053B","EPOCH":"2026-04-05T13:20:21.026688","MEAN_MOTION":1.00161805,"ECCENTRICITY":0.0023602,"INCLINATION":1.387,"RA_OF_ASC_NODE":85.2277,"ARG_OF_PERICENTER":191.1528,"MEAN_ANOMALY":192.3374,"EPHEMERIS_TYPE":0,"CLASSIFICATION_TYPE":"U","NORAD_CAT_ID":41748,"ELEMENT_SET_NO":999,"REV_AT_EPOCH":3552,"BSTAR":0,"MEAN_MOTION_DOT":-5.8e-7,"MEAN_MOTION_DDOT":0},{"OBJECT_NAME":"INSAT-3DR","OBJECT_ID":"2016-054A","EPOCH":"2026-04-05T13:16:15.604896","MEAN_MOTION":1.0027389,"ECCENTRICITY":0.00120551,"INCLINATION":0.1304,"RA_OF_ASC_NODE":86.7609,"ARG_OF_PERICENTER":196.6352,"MEAN_ANOMALY":183.535,"EPHEMERIS_TYPE":0,"CLASSIFICATION_TYPE":"U","NORAD_CAT_ID":41752,"ELEMENT_SET_NO":999,"REV_AT_EPOCH":3509,"BSTAR":0,"MEAN_MOTION_DOT":-7.6e-7,"MEAN_MOTION_DDOT":0},{"OBJECT_NAME":"GSAT-18","OBJECT_ID":"2016-060A","EPOCH":"2026-04-05T13:16:15.604896","MEAN_MOTION":1.0027301,"ECCENTRICITY":0.00046791,"INCLINATION":0.0499,"RA_OF_ASC_NODE":82.5648,"ARG_OF_PERICENTER":329.299,"MEAN_ANOMALY":55.014,"EPHEMERIS_TYPE":0,"CLASSIFICATION_TYPE":"U","NORAD_CAT_ID":41793,"ELEMENT_SET_NO":999,"REV_AT_EPOCH":3480,"BSTAR":0,"MEAN_MOTION_DOT":-7.5e-7,"MEAN_MOTION_DDOT":0},{"OBJECT_NAME":"SKY MUSTER 2 (NBN1B)","OBJECT_ID":"2016-060B","EPOCH":"2026-04-05T13:27:38.734272","MEAN_MOTION":1.00273354,"ECCENTRICITY":0.00015031,"INCLINATION":0.0136,"RA_OF_ASC_NODE":246.5335,"ARG_OF_PERICENTER":128.5632,"MEAN_ANOMALY":165.4821,"EPHEMERIS_TYPE":0,"CLASSIFICATION_TYPE":"U","NORAD_CAT_ID":41794,"ELEMENT_SET_NO":999,"REV_AT_EPOCH":3479,"BSTAR":0,"MEAN_MOTION_DOT":-2.42e-6,"MEAN_MOTION_DDOT":0},{"OBJECT_NAME":"HIMAWARI-9","OBJECT_ID":"2016-064A","EPOCH":"2026-04-05T12:52:02.764704","MEAN_MOTION":1.00270979,"ECCENTRICITY":0.0001267,"INCLINATION":0.0494,"RA_OF_ASC_NODE":107.0589,"ARG_OF_PERICENTER":293.007,"MEAN_ANOMALY":127.5527,"EPHEMERIS_TYPE":0,"CLASSIFICATION_TYPE":"U","NORAD_CAT_ID":41836,"ELEMENT_SET_NO":999,"REV_AT_EPOCH":3448,"BSTAR":0,"MEAN_MOTION_DOT":-2.73e-6,"MEAN_MOTION_DDOT":0},{"OBJECT_NAME":"SHIJIAN-17 (SJ-17)","OBJECT_ID":"2016-065A","EPOCH":"2026-04-05T05:49:25.524192","MEAN_MOTION":0.99869986,"ECCENTRICITY":0.0001558,"INCLINATION":5.5682,"RA_OF_ASC_NODE":73.4665,"ARG_OF_PERICENTER":340.7431,"MEAN_ANOMALY":210.6744,"EPHEMERIS_TYPE":0,"CLASSIFICATION_TYPE":"U","NORAD_CAT_ID":41838,"ELEMENT_SET_NO":999,"REV_AT_EPOCH":3447,"BSTAR":0,"MEAN_MOTION_DOT":-1.83e-6,"MEAN_MOTION_DDOT":0},{"OBJECT_NAME":"GOES 16","OBJECT_ID":"2016-071A","EPOCH":"2026-04-05T12:14:50.341632","MEAN_MOTION":1.00272287,"ECCENTRICITY":0.00018177,"INCLINATION":0.1754,"RA_OF_ASC_NODE":85.2811,"ARG_OF_PERICENTER":247.7312,"MEAN_ANOMALY":299.8111,"EPHEMERIS_TYPE":0,"CLASSIFICATION_TYPE":"U","NORAD_CAT_ID":41866,"ELEMENT_SET_NO":999,"REV_AT_EPOCH":3437,"BSTAR":0,"MEAN_MOTION_DOT":-8.9e-7,"MEAN_MOTION_DDOT":0},{"OBJECT_NAME":"TIANLIAN 1-04","OBJECT_ID":"2016-072A","EPOCH":"2026-04-04T15:20:21.538752","MEAN_MOTION":1.0027366,"ECCENTRICITY":0.00400139,"INCLINATION":0.6777,"RA_OF_ASC_NODE":83.2511,"ARG_OF_PERICENTER":93.8105,"MEAN_ANOMALY":62.7584,"EPHEMERIS_TYPE":0,"CLASSIFICATION_TYPE":"U","NORAD_CAT_ID":41869,"ELEMENT_SET_NO":999,"REV_AT_EPOCH":3456,"BSTAR":0,"MEAN_MOTION_DOT":3.2e-7,"MEAN_MOTION_DDOT":0},{"OBJECT_NAME":"WGS F8 (USA 272)","OBJECT_ID":"2016-075A","EPOCH":"2026-04-05T12:27:38.486016","MEAN_MOTION":1.00270737,"ECCENTRICITY":7.834e-5,"INCLINATION":0.0141,"RA_OF_ASC_NODE":212.4566,"ARG_OF_PERICENTER":309.352,"MEAN_ANOMALY":8.7343,"EPHEMERIS_TYPE":0,"CLASSIFICATION_TYPE":"U","NORAD_CAT_ID":41879,"ELEMENT_SET_NO":999,"REV_AT_EPOCH":3409,"BSTAR":0,"MEAN_MOTION_DOT":-2.01e-6,"MEAN_MOTION_DDOT":0},{"OBJECT_NAME":"FENGYUN 4A","OBJECT_ID":"2016-077A","EPOCH":"2026-04-05T15:02:37.862304","MEAN_MOTION":1.00278388,"ECCENTRICITY":0.00078643,"INCLINATION":2.1391,"RA_OF_ASC_NODE":81.018,"ARG_OF_PERICENTER":139.101,"MEAN_ANOMALY":323.1197,"EPHEMERIS_TYPE":0,"CLASSIFICATION_TYPE":"U","NORAD_CAT_ID":41882,"ELEMENT_SET_NO":999,"REV_AT_EPOCH":3420,"BSTAR":0,"MEAN_MOTION_DOT":-3.54e-6,"MEAN_MOTION_DDOT":0},{"OBJECT_NAME":"ECHOSTAR 19","OBJECT_ID":"2016-079A","EPOCH":"2026-04-05T12:17:05.127360","MEAN_MOTION":1.00271609,"ECCENTRICITY":0.00013608,"INCLINATION":0.0158,"RA_OF_ASC_NODE":167.6586,"ARG_OF_PERICENTER":221.1197,"MEAN_ANOMALY":252.1881,"EPHEMERIS_TYPE":0,"CLASSIFICATION_TYPE":"U","NORAD_CAT_ID":41893,"ELEMENT_SET_NO":999,"REV_AT_EPOCH":3397,"BSTAR":0,"MEAN_MOTION_DOT":-1.37e-6,"MEAN_MOTION_DDOT":0},{"OBJECT_NAME":"JCSAT-110A (JCSAT-15)","OBJECT_ID":"2016-082A","EPOCH":"2026-04-05T06:57:38.725056","MEAN_MOTION":1.00271662,"ECCENTRICITY":7.72e-5,"INCLINATION":0.0186,"RA_OF_ASC_NODE":210.3851,"ARG_OF_PERICENTER":190.5663,"MEAN_ANOMALY":7.1181,"EPHEMERIS_TYPE":0,"CLASSIFICATION_TYPE":"U","NORAD_CAT_ID":41903,"ELEMENT_SET_NO":999,"REV_AT_EPOCH":3402,"BSTAR":0,"MEAN_MOTION_DOT":-3.49e-6,"MEAN_MOTION_DDOT":0}]
