TIANTONG-1 1            
1 41725U 16048A   26093.69721959 -.00000318  00000+0  00000+0 0  9997
2 41725   3.7083  42.7354 0006406  10.6542 131.0420  1.00272557 35526
JCSAT-16                
1 41729U 16050A   26095.55953175 -.00000249  00000+0  00000+0 0  9991
2 41729   0.0178 201.8571 0000983 206.6645 130.7118  1.00271195 35346
USA 270                 
1 41744U 16052A   26093.35524139  .00000029  00000+0  00000+0 0  9995
2 41744   4.0059  78.1231 0003830 309.4269 107.2690  1.00334013 27389
USA 271                 
1 41745U 16052B   26093.34527468 -.00000356  00000+0  00000+0 0  9997
2 41745   3.9783  78.1909 0007625 147.5825 215.0428  1.00250962 27173
INTELSAT 36 (IS-36)     
1 41747U 16053A   26095.55136196 -.00000023  00000+0  00000+0 0  9990
2 41747   0.0109 233.5325 0000996 102.2251 125.0803  1.00271878 35231
INTELSAT 33E (IS-33E)   
1 41748U 16053B   26095.55579892 -.00000058  00000+0  00000+0 0  9993
2 41748   1.3870  85.2277 0023602 191.1528 192.3374  1.00161805 35522
INSAT-3DR               
1 41752U 16054A   26095.55295839 -.00000076  00000+0  00000+0 0  9995
2 41752   0.1304  86.7609 0012055 196.6352 183.5350  1.00273890 35092
GSAT-18                 
1 41793U 16060A   26095.55295839 -.00000075  00000+0  00000+0 0  9996
2 41793   0.0499  82.5648 0004679 329.2990  55.0140  1.00273010 34805
SKY MUSTER 2 (NBN1B)    
1 41794U 16060B   26095.56086498 -.00000242  00000+0  00000+0 0  9993
2 41794   0.0136 246.5335 0001503 128.5632 165.4821  1.00273354 34796
HIMAWARI-9              
1 41836U 16064A   26095.53614311 -.00000273  00000+0  00000+0 0  9996
2 41836   0.0494 107.0589 0001267 293.0070 127.5527  1.00270979 34481
SHIJIAN-17 (SJ-17)      
1 41838U 16065A   26095.24265653 -.00000183  00000+0  00000+0 0  9998
2 41838   5.5682  73.4665 0001558 340.7431 210.6744  0.99869986 34470
GOES 16                 
1 41866U 16071A   26095.51030488 -.00000089  00000+0  00000+0 0  9997
2 41866   0.1754  85.2811 0001817 247.7312 299.8111  1.00272287 34379
TIANLIAN 1-04           
1 41869U 16072A   26094.63913818  .00000032  00000+0  00000+0 0  9997
2 41869   0.6777  83.2511 0040013  93.8105  62.7584  1.00273660 34566
WGS F8 (USA 272)        
1 41879U 16075A   26095.51919544 -.00000201  00000+0  00000+0 0  9990
2 41879   0.0141 212.4566 0000783 309.3520   8.7343  1.00270737 34091
FENGYUN 4A              
1 41882U 16077A   26095.62682711 -.00000354  00000+0  00000+0 0  9990
2 41882   2.1391  81.0180 0007864 139.1010 323.1197  1.00278388 34201
ECHOSTAR 19             
1 41893U 16079A   26095.51186490 -.00000137  00000+0  00000+0 0  9994
2 41893   0.0158 167.6586 0001360 221.1197 252.1881  1.00271609 33978
JCSAT-110A (JCSAT-15)   
1 41903U 16082A   26095.29003154 -.00000349  00000+0  00000+0 0  9995
2 41903   0.0186 210.3851 0000772 190.5663   7.1181  1.00271662 34022
